KUIPER-00061            
1 64521U 25134X   25230.87859818  .00022103  00000+0  62485-3 0  9994
2 64521  51.8734  58.8879 0005846 310.7940  49.2539 15.36242276  9908
KUIPER-00062            
1 64522U 25134Y   25231.49080861  .00010790  00000+0  54591-3 0  9996
2 64522  51.8822  57.7840 0008228 322.3759  37.6643 15.17494580  9988
KUIPER-00063            
1 64523U 25134Z   25231.00002315  .00050294  00000+0  22877-2 0  9996
2 64523  51.8784  59.2751 0005486 262.2043 296.2284 15.20221916  5531
KUIPER-00064            
1 64524U 25134AA  25230.66671296 -.00023364  00000+0 -91691-3 0  9999
2 64524  51.8825  60.2747 0002509  22.8613  99.4341 15.24849995  5704
KUIPER-00065            
1 64525U 25134AB  25231.49662835  .00008814  00000+0  48359-3 0  9995
2 64525  51.8842  58.3570 0008201 326.8543  33.1920 15.14853025  9968
KUIPER-00066            
1 64526U 25134AC  25231.00002315  .00051906  00000+0  21404-2 0  9995
2 64526  51.8847  58.7165 0004053 309.7829 160.2301 15.23554130  5759
KUIPER-00069            
1 64816U 25151A   25231.10345663  .00030417  00000+0  85540-3 0  9999
2 64816  51.8790 124.4006 0005140 261.9419  98.0984 15.36227175  6379
KUIPER-00070            
1 64817U 25151B   25231.19252582  .00015365  00000+0  75468-3 0  9999
2 64817  51.8898 125.7659 0006997 286.3771  73.6439 15.18218826  6366
